start=new Date('2023-05-04T00:00:00.000Z').valueOf();
sats=[{"GP_ID":"231199783","PERIOD":"95.920","FILE":"3900281","MEAN_MOTION_DDOT":"0.0000000000000","EPOCH":"2023-05-03T16:56:55.357728","DECAY_DATE":null,"CLASSIFICATION_TYPE":"U","RCS_SIZE":"LARGE","SITE":"AFWTR","NORAD_CAT_ID":"53214","INCLINATION":"97.6544","ECCENTRICITY":"0.00021970","TLE_LINE2":"2 53214  97.6544 185.4263 0002197  95.7463 264.4011 15.01258866 43135","PERIAPSIS":"561.490","REF_FRAME":"TEME","TLE_LINE1":"1 53214U 22084AB  23123.70619627  .00000513  00000-0  44531-4 0  9990","ARG_OF_PERICENTER":"95.7463","SEMIMAJOR_AXIS":"6941.150","LAUNCH_DATE":"2022-07-22","TIME_SYSTEM":"UTC","EPHEMERIS_TYPE":"0","MEAN_ANOMALY":"264.4011","COUNTRY_CODE":"US","OBJECT_NAME":"STARLINK-4353","OBJECT_ID":"2022-084AB","CENTER_NAME":"EARTH","MEAN_MOTION":"15.01258866","BSTAR":"0.00004453100000","OBJECT_TYPE":"PAYLOAD","MEAN_ELEMENT_THEORY":"SGP4","REV_AT_EPOCH":"4313","RA_OF_ASC_NODE":"185.4263","MEAN_MOTION_DOT":"0.00000513","ELEMENT_SET_NO":"999","APOAPSIS":"564.540"},{"TIME_SYSTEM":"UTC","COUNTRY_CODE":"US","MEAN_ANOMALY":"265.3972","EPHEMERIS_TYPE":"0","TLE_LINE1":"1 53215U 22084AC  23123.76363034 -.00004884  00000-0 -37632-3 0  9995","ARG_OF_PERICENTER":"94.7437","REF_FRAME":"TEME","LAUNCH_DATE":"2022-07-22","SEMIMAJOR_AXIS":"6941.276","TLE_LINE2":"2 53215  97.6540 185.4690 0001621  94.7437 265.3972 15.01218108 43666","PERIAPSIS":"562.016","DECAY_DATE":null,"CLASSIFICATION_TYPE":"U","EPOCH":"2023-05-03T18:19:37.661376","RCS_SIZE":"LARGE","SITE":"AFWTR","FILE":"3900281","GP_ID":"231199034","PERIOD":"95.922","MEAN_MOTION_DDOT":"0.0000000000000","ECCENTRICITY":"0.00016210","NORAD_CAT_ID":"53215","INCLINATION":"97.6540","ELEMENT_SET_NO":"999","APOAPSIS":"564.266","OBJECT_TYPE":"PAYLOAD","RA_OF_ASC_NODE":"185.4690","MEAN_ELEMENT_THEORY":"SGP4","REV_AT_EPOCH":"4366","MEAN_MOTION_DOT":"-0.00004884","BSTAR":"-0.00037632000000","CENTER_NAME":"EARTH","MEAN_MOTION":"15.01218108","OBJECT_ID":"2022-084AC","OBJECT_NAME":"STARLINK-4335"},{"BSTAR":"0.00002443100000","MEAN_MOTION":"15.01262164","CENTER_NAME":"EARTH","OBJECT_ID":"2022-084AD","OBJECT_NAME":"STARLINK-4376","ELEMENT_SET_NO":"999","APOAPSIS":"564.488","OBJECT_TYPE":"PAYLOAD","MEAN_MOTION_DOT":"0.00000255","MEAN_ELEMENT_THEORY":"SGP4","RA_OF_ASC_NODE":"185.4797","REV_AT_EPOCH":"4314","TLE_LINE2":"2 53216  97.6530 185.4797 0002137  99.4015 260.7450 15.01262164 43145","PERIAPSIS":"561.522","SITE":"AFWTR","RCS_SIZE":"LARGE","DECAY_DATE":null,"CLASSIFICATION_TYPE":"U","EPOCH":"2023-05-03T18:27:33.985440","MEAN_MOTION_DDOT":"0.0000000000000","GP_ID":"231199284","FILE":"3900281","PERIOD":"95.919","ECCENTRICITY":"0.00021370","INCLINATION":"97.6530","NORAD_CAT_ID":"53216","TIME_SYSTEM":"UTC","COUNTRY_CODE":"US","MEAN_ANOMALY":"260.7450","EPHEMERIS_TYPE":"0","ARG_OF_PERICENTER":"99.4015","TLE_LINE1":"1 53216U 22084AD  23123.76914335  .00000255  00000-0  24431-4 0  9992","REF_FRAME":"TEME","LAUNCH_DATE":"2022-07-22","SEMIMAJOR_AXIS":"6941.140"},{"LAUNCH_DATE":"2022-07-22","SEMIMAJOR_AXIS":"6941.141","ARG_OF_PERICENTER":"109.8216","TLE_LINE1":"1 53217U 22084AE  23123.76013063  .00000164  00000-0  17387-4 0  9992","REF_FRAME":"TEME","COUNTRY_CODE":"US","EPHEMERIS_TYPE":"0","MEAN_ANOMALY":"250.3169","TIME_SYSTEM":"UTC","ECCENTRICITY":"0.00014880","INCLINATION":"97.6539","NORAD_CAT_ID":"53217","RCS_SIZE":"LARGE","SITE":"AFWTR","DECAY_DATE":null,"EPOCH":"2023-05-03T18:14:35.286432","CLASSIFICATION_TYPE":"U","MEAN_MOTION_DDOT":"0.0000000000000","FILE":"3900281","GP_ID":"231199535","PERIOD":"95.919","PERIAPSIS":"561.973","TLE_LINE2":"2 53217  97.6539 185.4642 0001488 109.8216 250.3169 15.01261910 43141","MEAN_MOTION_DOT":"0.00000164","REV_AT_EPOCH":"4314","MEAN_ELEMENT_THEORY":"SGP4","RA_OF_ASC_NODE":"185.4642","OBJECT_TYPE":"PAYLOAD","APOAPSIS":"564.039","ELEMENT_SET_NO":"999","OBJECT_ID":"2022-084AE","OBJECT_NAME":"STARLINK-4379","BSTAR":"0.00001738700000","MEAN_MOTION":"15.01261910","CENTER_NAME":"EARTH"},{"SEMIMAJOR_AXIS":"6941.142","LAUNCH_DATE":"2022-07-22","REF_FRAME":"TEME","ARG_OF_PERICENTER":"104.7070","TLE_LINE1":"1 53218U 22084AF  23123.76729171  .00000322  00000-0  29685-4 0  9997","EPHEMERIS_TYPE":"0","MEAN_ANOMALY":"255.4334","COUNTRY_CODE":"US","TIME_SYSTEM":"UTC","INCLINATION":"97.6536","NORAD_CAT_ID":"53218","ECCENTRICITY":"0.00016160","MEAN_MOTION_DDOT":"0.0000000000000","GP_ID":"231200283","FILE":"3900281","PERIOD":"95.919","SITE":"AFWTR","RCS_SIZE":"LARGE","CLASSIFICATION_TYPE":"U","DECAY_DATE":null,"EPOCH":"2023-05-03T18:24:54.003744","PERIAPSIS":"561.885","TLE_LINE2":"2 53218  97.6536 185.4753 0001616 104.7070 255.4334 15.01261552 43666","MEAN_MOTION_DOT":"0.00000322","MEAN_ELEMENT_THEORY":"SGP4","RA_OF_ASC_NODE":"185.4753","REV_AT_EPOCH":"4366","OBJECT_TYPE":"PAYLOAD","APOAPSIS":"564.129","ELEMENT_SET_NO":"999","OBJECT_NAME":"STARLINK-4384","OBJECT_ID":"2022-084AF","MEAN_MOTION":"15.01261552","CENTER_NAME":"EARTH","BSTAR":"0.00002968500000"},{"APOAPSIS":"563.636","ELEMENT_SET_NO":"999","MEAN_ELEMENT_THEORY":"SGP4","REV_AT_EPOCH":"4314","RA_OF_ASC_NODE":"185.4596","MEAN_MOTION_DOT":"0.00000338","OBJECT_TYPE":"PAYLOAD","CENTER_NAME":"EARTH","MEAN_MOTION":"15.01261985","BSTAR":"0.00003086400000","OBJECT_NAME":"STARLINK-4373","OBJECT_ID":"2022-084AG","EPHEMERIS_TYPE":"0","MEAN_ANOMALY":"223.2853","COUNTRY_CODE":"US","TIME_SYSTEM":"UTC","SEMIMAJOR_AXIS":"6941.141","LAUNCH_DATE":"2022-07-22","REF_FRAME":"TEME","TLE_LINE1":"1 53219U 22084AG  23123.75617974  .00000338  00000-0  30864-4 0  9992","ARG_OF_PERICENTER":"136.8443","PERIAPSIS":"562.375","TLE_LINE2":"2 53219  97.6539 185.4596 0000908 136.8443 223.2853 15.01261985 43140","NORAD_CAT_ID":"53219","INCLINATION":"97.6539","ECCENTRICITY":"0.00009080","PERIOD":"95.919","GP_ID":"231198535","FILE":"3900281","MEAN_MOTION_DDOT":"0.0000000000000","CLASSIFICATION_TYPE":"U","DECAY_DATE":null,"EPOCH":"2023-05-03T18:08:53.929536","RCS_SIZE":"LARGE","SITE":"AFWTR"},{"LAUNCH_DATE":"2022-07-22","SEMIMAJOR_AXIS":"6941.143","ARG_OF_PERICENTER":"109.6394","TLE_LINE1":"1 53220U 22084AH  23123.76173737  .00000642  00000-0  54595-4 0  9994","REF_FRAME":"TEME","COUNTRY_CODE":"US","EPHEMERIS_TYPE":"0","MEAN_ANOMALY":"250.5009","TIME_SYSTEM":"UTC","ECCENTRICITY":"0.00016570","INCLINATION":"97.6538","NORAD_CAT_ID":"53220","RCS_SIZE":"LARGE","SITE":"AFWTR","DECAY_DATE":null,"CLASSIFICATION_TYPE":"U","EPOCH":"2023-05-03T18:16:54.108768","MEAN_MOTION_DDOT":"0.0000000000000","GP_ID":"231198785","FILE":"3900281","PERIOD":"95.919","PERIAPSIS":"561.857","TLE_LINE2":"2 53220  97.6538 185.4670 0001657 109.6394 250.5009 15.01261377 43667","MEAN_MOTION_DOT":"0.00000642","MEAN_ELEMENT_THEORY":"SGP4","RA_OF_ASC_NODE":"185.4670","REV_AT_EPOCH":"4366","OBJECT_TYPE":"PAYLOAD","APOAPSIS":"564.158","ELEMENT_SET_NO":"999","OBJECT_ID":"2022-084AH","OBJECT_NAME":"STARLINK-4363","BSTAR":"0.00005459500000","MEAN_MOTION":"15.01261377","CENTER_NAME":"EARTH"},{"TLE_LINE2":"2 53221  97.6537 185.4580 0001021 109.3467 250.7868 15.01260507 43142","PERIAPSIS":"562.302","CLASSIFICATION_TYPE":"U","DECAY_DATE":null,"EPOCH":"2023-05-03T18:06:14.092128","SITE":"AFWTR","RCS_SIZE":"LARGE","PERIOD":"95.919","GP_ID":"231200034","FILE":"3900281","MEAN_MOTION_DDOT":"0.0000000000000","ECCENTRICITY":"0.00010210","NORAD_CAT_ID":"53221","INCLINATION":"97.6537","TIME_SYSTEM":"UTC","COUNTRY_CODE":"US","MEAN_ANOMALY":"250.7868","EPHEMERIS_TYPE":"0","TLE_LINE1":"1 53221U 22084AJ  23123.75432977  .00000038  00000-0  75632-5 0  9993","ARG_OF_PERICENTER":"109.3467","REF_FRAME":"TEME","LAUNCH_DATE":"2022-07-22","SEMIMAJOR_AXIS":"6941.145","BSTAR":"0.00000756320000","CENTER_NAME":"EARTH","MEAN_MOTION":"15.01260507","OBJECT_ID":"2022-084AJ","OBJECT_NAME":"STARLINK-4377","ELEMENT_SET_NO":"999","APOAPSIS":"563.719","OBJECT_TYPE":"PAYLOAD","RA_OF_ASC_NODE":"185.4580","REV_AT_EPOCH":"4314","MEAN_ELEMENT_THEORY":"SGP4","MEAN_MOTION_DOT":"0.00000038"},{"TLE_LINE2":"2 53222  97.6541 185.4640 0001186 112.7621 247.3729 15.01262838 43144","PERIAPSIS":"562.180","EPOCH":"2023-05-03T18:14:13.999200","DECAY_DATE":null,"CLASSIFICATION_TYPE":"U","RCS_SIZE":"LARGE","SITE":"AFWTR","FILE":"3900281","GP_ID":"231199784","PERIOD":"95.919","MEAN_MOTION_DDOT":"0.0000000000000","ECCENTRICITY":"0.00011860","NORAD_CAT_ID":"53222","INCLINATION":"97.6541","TIME_SYSTEM":"UTC","COUNTRY_CODE":"US","EPHEMERIS_TYPE":"0","MEAN_ANOMALY":"247.3729","TLE_LINE1":"1 53222U 22084AK  23123.75988425  .00000912  00000-0  75560-4 0  9998","ARG_OF_PERICENTER":"112.7621","REF_FRAME":"TEME","LAUNCH_DATE":"2022-07-22","SEMIMAJOR_AXIS":"6941.138","BSTAR":"0.00007556000000","CENTER_NAME":"EARTH","MEAN_MOTION":"15.01262838","OBJECT_ID":"2022-084AK","OBJECT_NAME":"STARLINK-4381","ELEMENT_SET_NO":"999","APOAPSIS":"563.826","OBJECT_TYPE":"PAYLOAD","REV_AT_EPOCH":"4314","RA_OF_ASC_NODE":"185.4640","MEAN_ELEMENT_THEORY":"SGP4","MEAN_MOTION_DOT":"0.00000912"},{"REV_AT_EPOCH":"4314","MEAN_ELEMENT_THEORY":"SGP4","RA_OF_ASC_NODE":"185.4559","MEAN_MOTION_DOT":"0.00000309","OBJECT_TYPE":"PAYLOAD","APOAPSIS":"563.630","ELEMENT_SET_NO":"999","OBJECT_ID":"2022-084AL","OBJECT_NAME":"STARLINK-4354","BSTAR":"0.00002867000000","CENTER_NAME":"EARTH","MEAN_MOTION":"15.01261290","LAUNCH_DATE":"2022-07-22","SEMIMAJOR_AXIS":"6941.143","TLE_LINE1":"1 53223U 22084AL  23123.75247653  .00000309  00000-0  28670-4 0  9990","ARG_OF_PERICENTER":"185.6389","REF_FRAME":"TEME","COUNTRY_CODE":"US","EPHEMERIS_TYPE":"0","MEAN_ANOMALY":"174.4825","TIME_SYSTEM":"UTC","ECCENTRICITY":"0.00008970","NORAD_CAT_ID":"53223","INCLINATION":"97.6537","DECAY_DATE":null,"CLASSIFICATION_TYPE":"U","EPOCH":"2023-05-03T18:03:33.972192","SITE":"AFWTR","RCS_SIZE":"LARGE","GP_ID":"231199035","PERIOD":"95.919","FILE":"3900281","MEAN_MOTION_DDOT":"0.0000000000000","PERIAPSIS":"562.385","TLE_LINE2":"2 53223  97.6537 185.4559 0000897 185.6389 174.4825 15.01261290 43145"}];
